{
  "norad_id": 60041,
  "name": "STARLINK-11149 [DTC]",
  "history": [
    {
      "epoch": "2026-03-28T12:03:54.514656Z",
      "apogee_km": 360.37211503653634,
      "perigee_km": 359.05284410843615,
      "latitude_deg": -3.105450013929482e-05,
      "longitude_deg": 166.78699887803364,
      "height_km": 360.1096236924621,
      "semi_major_axis_km": 6737.8494795724855,
      "eccentricity": 9.79e-05,
      "inclination_deg": 53.1588,
      "raan_deg": 173.6864,
      "arg_perigee_deg": 38.387,
      "mean_anomaly_deg": 321.7217,
      "mean_motion_rev_day": 15.69714987
    }
  ]
}