{"fetched_at":"2026-03-29T02:12:04Z","count":15717,"tles":[{"name":"STARLINK-11149 [DTC]","line1":"1 60041U 24112D   26087.50271429  .00002860  00000+0  28446-4 0  9997","line2":"2 60041  53.1588 173.6864 0000979  38.3870 321.7217 15.69714987103938","category":"Starlink"}]}